{"type": "FeatureCollection", "name": "Raozan Upazila (ADM3), Chattogram district, Bangladesh", "license": "CC BY 3.0 IGO \u2014 geoBoundaries gbOpen, source: Bangladesh Bureau of Statistics (BBS) / OCHA ROAP", "features": [{"type": "Feature", "properties": {"name": "Raozan", "district": "Chattogram", "division": "Chattogram", "admLevel": "ADM3", "shapeID": "5055444B26554901820582"}, "geometry": {"type": "MultiPolygon", "coordinates": [[[[91.87154, 22.47275], [91.87325, 22.47112], [91.87405, 22.46831], [91.87553, 22.46883], [91.87697, 22.47078], [91.87683, 22.47199], [91.87527, 22.47318], [91.87154, 22.47275]]], [[[91.84436, 22.56202], [91.84437, 22.5581], [91.84194, 22.55656], [91.83886, 22.55284], [91.8409, 22.55268], [91.84345, 22.55605], [91.84556, 22.55575], [91.84326, 22.54989], [91.84401, 22.5486], [91.84649, 22.54769], [91.84673, 22.54658], [91.84036, 22.54324], [91.84101, 22.54259], [91.84429, 22.54245], [91.84423, 22.53819], [91.84659, 22.53654], [91.8472, 22.53316], [91.84588, 22.5316], [91.84352, 22.53246], [91.84277, 22.53382], [91.843, 22.53695], [91.83959, 22.5326], [91.83938, 22.53119], [91.84336, 22.52917], [91.84965, 22.52288], [91.85506, 22.52306], [91.8566, 22.52207], [91.85592, 22.52094], [91.85058, 22.52149], [91.85091, 22.52053], [91.84856, 22.51867], [91.84309, 22.51625], [91.84014, 22.51288], [91.83946, 22.50919], [91.84088, 22.50822], [91.84074, 22.50634], [91.84188, 22.50318], [91.8463, 22.50198], [91.85155, 22.50287], [91.85198, 22.50399], [91.85995, 22.50402], [91.86421, 22.50535], [91.86714, 22.50238], [91.87424, 22.50577], [91.87775, 22.50542], [91.87354, 22.50106], [91.87253, 22.49813], [91.87353, 22.49715], [91.87643, 22.49706], [91.87756, 22.49584], [91.87794, 22.4929], [91.87646, 22.48996], [91.87658, 22.4886], [91.88021, 22.48819], [91.88186, 22.48617], [91.88215, 22.48291], [91.8797, 22.4717], [91.88207, 22.47139], [91.88596, 22.47251], [91.88633, 22.47006], [91.88562, 22.46898], [91.8831, 22.46867], [91.88165, 22.46933], [91.87954, 22.4688], [91.87859, 22.47031], [91.87496, 22.46716], [91.87381, 22.46729], [91.87065, 22.47139], [91.86726, 22.47221], [91.8593, 22.46682], [91.86083, 22.46574], [91.86544, 22.46804], [91.86978, 22.46506], [91.87756, 22.46585], [91.87788, 22.4641], [91.87703, 22.46169], [91.87911, 22.45848], [91.87875, 22.45645], [91.87582, 22.45405], [91.8762, 22.45194], [91.87759, 22.45088], [91.8759, 22.44847], [91.87376, 22.44861], [91.87211, 22.45019], [91.87206, 22.45436], [91.87103, 22.457], [91.87264, 22.4601], [91.87146, 22.46162], [91.86705, 22.45988], [91.8636, 22.46219], [91.8621, 22.46228], [91.86127, 22.46102], [91.86139, 22.45753], [91.86003, 22.45376], [91.86091, 22.45187], [91.86394, 22.4511], [91.86458, 22.44896], [91.8637, 22.44689], [91.86586, 22.44401], [91.8683, 22.44294], [91.86859, 22.44093], [91.87157, 22.43717], [91.87319, 22.4365], [91.8752, 22.43316], [91.87994, 22.43207], [91.88055, 22.43074], [91.88785, 22.43147], [91.89114, 22.43], [91.89206, 22.427], [91.89153, 22.42545], [91.8841, 22.41813], [91.89077, 22.41244], [91.89316, 22.4059], [91.9117, 22.4205], [91.91835, 22.42275], [91.92936, 22.42447], [91.93793, 22.4243], [91.94849, 22.42549], [91.95304, 22.42496], [91.95815, 22.42287], [91.96543, 22.42141], [91.96389, 22.42539], [91.96506, 22.42742], [91.96447, 22.42964], [91.96662, 22.43426], [91.9654, 22.43586], [91.96632, 22.43904], [91.97334, 22.44035], [91.97451, 22.43988], [91.97491, 22.43827], [91.97691, 22.43874], [91.97729, 22.4408], [91.97937, 22.44283], [91.97662, 22.44146], [91.97566, 22.4425], [91.97929, 22.44459], [91.98201, 22.44224], [91.9868, 22.44308], [91.98753, 22.44746], [91.98587, 22.44697], [91.98392, 22.44757], [91.98544, 22.45048], [91.98498, 22.45304], [91.98347, 22.45346], [91.98293, 22.45554], [91.97976, 22.45528], [91.98091, 22.45969], [91.97809, 22.46028], [91.97736, 22.46139], [91.97901, 22.46422], [91.9836, 22.46527], [91.98508, 22.46646], [91.98146, 22.46563], [91.98047, 22.46713], [91.97834, 22.48012], [91.9809, 22.48332], [91.98117, 22.4889], [91.98859, 22.4887], [91.98938, 22.4902], [91.98684, 22.49228], [91.98443, 22.49051], [91.98191, 22.49087], [91.97977, 22.49268], [91.97776, 22.49249], [91.97597, 22.49039], [91.97392, 22.49137], [91.97332, 22.49325], [91.97037, 22.49531], [91.97478, 22.5025], [91.9734, 22.50418], [91.97404, 22.50688], [91.97668, 22.50676], [91.97822, 22.50782], [91.97736, 22.51177], [91.97531, 22.51439], [91.97692, 22.51737], [91.97559, 22.51929], [91.97318, 22.5186], [91.97154, 22.51935], [91.97414, 22.52243], [91.97228, 22.52737], [91.97186, 22.53181], [91.97245, 22.53427], [91.96975, 22.53736], [91.97042, 22.54024], [91.96971, 22.54188], [91.96646, 22.54416], [91.96674, 22.54575], [91.96875, 22.54664], [91.96933, 22.54784], [91.96878, 22.54929], [91.96635, 22.55062], [91.96607, 22.5529], [91.96737, 22.55457], [91.96634, 22.5571], [91.96377, 22.55863], [91.96364, 22.56021], [91.96488, 22.56162], [91.96424, 22.56324], [91.96345, 22.5645], [91.96087, 22.56425], [91.959, 22.5654], [91.95936, 22.56617], [91.96163, 22.56639], [91.96246, 22.56755], [91.96196, 22.56943], [91.95996, 22.57053], [91.96186, 22.57409], [91.95953, 22.57674], [91.95668, 22.57779], [91.95796, 22.58176], [91.95726, 22.5834], [91.95488, 22.5851], [91.95588, 22.58966], [91.95417, 22.59112], [91.9515, 22.59091], [91.95241, 22.59429], [91.95206, 22.59678], [91.94834, 22.59923], [91.94787, 22.60329], [91.94431, 22.60599], [91.9423, 22.60593], [91.94133, 22.60695], [91.94145, 22.60919], [91.94445, 22.60972], [91.94502, 22.61172], [91.94295, 22.61742], [91.94149, 22.61803], [91.93885, 22.62407], [91.94001, 22.62746], [91.93799, 22.63021], [91.93714, 22.63298], [91.93747, 22.63404], [91.93941, 22.63461], [91.93792, 22.6356], [91.9375, 22.63742], [91.93881, 22.64124], [91.93519, 22.65052], [91.93243, 22.6524], [91.93501, 22.65344], [91.93472, 22.65711], [91.92359, 22.65747], [91.92316, 22.66623], [91.9224, 22.66697], [91.91935, 22.66665], [91.91772, 22.66787], [91.91708, 22.66744], [91.91542, 22.66288], [91.91597, 22.65827], [91.91237, 22.65748], [91.90947, 22.65451], [91.90887, 22.65235], [91.91035, 22.65112], [91.90967, 22.64974], [91.91093, 22.64887], [91.90797, 22.64482], [91.9128, 22.64415], [91.91372, 22.64306], [91.91295, 22.63976], [91.91519, 22.63676], [91.91522, 22.63533], [91.91405, 22.63449], [91.9098, 22.63408], [91.91207, 22.63186], [91.90801, 22.62962], [91.90837, 22.62901], [91.9125, 22.62921], [91.91368, 22.62719], [91.91333, 22.6253], [91.90962, 22.62443], [91.91089, 22.62019], [91.90608, 22.62159], [91.90199, 22.6205], [91.89865, 22.62081], [91.90094, 22.61653], [91.90069, 22.61551], [91.89919, 22.6157], [91.89773, 22.61756], [91.89645, 22.61755], [91.89888, 22.61119], [91.89618, 22.6086], [91.89421, 22.61087], [91.89248, 22.61011], [91.89219, 22.60893], [91.8935, 22.60603], [91.89275, 22.605], [91.88959, 22.60416], [91.88904, 22.60062], [91.88737, 22.59911], [91.88829, 22.59719], [91.8856, 22.59587], [91.88356, 22.59768], [91.87832, 22.59459], [91.87759, 22.58758], [91.87531, 22.58474], [91.87604, 22.58154], [91.87428, 22.57755], [91.87409, 22.56542], [91.87247, 22.56222], [91.87074, 22.56182], [91.87045, 22.56081], [91.86332, 22.56242], [91.86505, 22.57744], [91.86477, 22.57851], [91.86376, 22.57888], [91.86016, 22.57698], [91.85971, 22.575], [91.8577, 22.57395], [91.85719, 22.57144], [91.85537, 22.57035], [91.85427, 22.56726], [91.84941, 22.56551], [91.84436, 22.56202]]]]}}], "simplification": "Douglas-Peucker, epsilon=0.0005 degrees (~55 m)"}